{"fetched_at":"2026-07-17T06:37:53.254Z","source":"https://celestrak.org/NORAD/elements/gp.php?GROUP=planet&FORMAT=JSON","constellation":"superdove","records":[{"OBJECT_NAME":"FLOCK 4BE-17","OBJECT_ID":"2024-149AA","EPOCH":"2026-07-16T04:43:28.373088","CLASSIFICATION_TYPE":"U","MEAN_MOTION":15.40589478,"ECCENTRICITY":0.00044714,"INCLINATION":97.3771,"RA_OF_ASC_NODE":280.8101,"ARG_OF_PERICENTER":143.9783,"MEAN_ANOMALY":216.1765,"EPHEMERIS_TYPE":0,"NORAD_CAT_ID":60492,"ELEMENT_SET_NO":999,"REV_AT_EPOCH":10672,"BSTAR":0.00022728142,"MEAN_MOTION_DOT":0.00009164,"MEAN_MOTION_DDOT":0},{"OBJECT_NAME":"FLOCK 4BE-22","OBJECT_ID":"2024-149AC","EPOCH":"2026-07-16T16:06:34.996032","CLASSIFICATION_TYPE":"U","MEAN_MOTION":15.42015181,"ECCENTRICITY":0.0004802,"INCLINATION":97.3732,"RA_OF_ASC_NODE":281.5282,"ARG_OF_PERICENTER":149.8093,"MEAN_ANOMALY":210.3431,"EPHEMERIS_TYPE":0,"NORAD_CAT_ID":60494,"ELEMENT_SET_NO":999,"REV_AT_EPOCH":10684,"BSTAR":0.00023186,"MEAN_MOTION_DOT":0.00009806,"MEAN_MOTION_DDOT":0},{"OBJECT_NAME":"FLOCK 4BE-34","OBJECT_ID":"2024-149AD","EPOCH":"2026-07-16T19:38:49.092000","CLASSIFICATION_TYPE":"U","MEAN_MOTION":15.41982011,"ECCENTRICITY":0.0004994,"INCLINATION":97.3781,"RA_OF_ASC_NODE":282.5179,"ARG_OF_PERICENTER":156.8786,"MEAN_ANOMALY":203.2686,"EPHEMERIS_TYPE":0,"NORAD_CAT_ID":60495,"ELEMENT_SET_NO":999,"REV_AT_EPOCH":10689,"BSTAR":0.00022957,"MEAN_MOTION_DOT":0.00009697,"MEAN_MOTION_DDOT":0},{"OBJECT_NAME":"FLOCK 4BE-32","OBJECT_ID":"2024-149AF","EPOCH":"2026-07-16T04:23:33.380736","CLASSIFICATION_TYPE":"U","MEAN_MOTION":15.43106297,"ECCENTRICITY":0.0005029,"INCLINATION":97.3718,"RA_OF_ASC_NODE":281.4419,"ARG_OF_PERICENTER":155.7934,"MEAN_ANOMALY":204.3551,"EPHEMERIS_TYPE":0,"NORAD_CAT_ID":60497,"ELEMENT_SET_NO":999,"REV_AT_EPOCH":10680,"BSTAR":0.00022979,"MEAN_MOTION_DOT":0.0001008,"MEAN_MOTION_DDOT":0},{"OBJECT_NAME":"FLOCK 4BE-11","OBJECT_ID":"2024-149AK","EPOCH":"2026-07-16T16:20:42.442656","CLASSIFICATION_TYPE":"U","MEAN_MOTION":15.43908786,"ECCENTRICITY":0.0005155,"INCLINATION":97.3694,"RA_OF_ASC_NODE":282.2039,"ARG_OF_PERICENTER":154.549,"MEAN_ANOMALY":205.6013,"EPHEMERIS_TYPE":0,"NORAD_CAT_ID":60501,"ELEMENT_SET_NO":999,"REV_AT_EPOCH":10690,"BSTAR":0.00023355,"MEAN_MOTION_DOT":0.00010529,"MEAN_MOTION_DDOT":0},{"OBJECT_NAME":"FLOCK 4BE-24","OBJECT_ID":"2024-149AP","EPOCH":"2026-07-16T05:03:41.301216","CLASSIFICATION_TYPE":"U","MEAN_MOTION":15.44126319,"ECCENTRICITY":0.00051235,"INCLINATION":97.3715,"RA_OF_ASC_NODE":281.9968,"ARG_OF_PERICENTER":166.9328,"MEAN_ANOMALY":193.2054,"EPHEMERIS_TYPE":0,"NORAD_CAT_ID":60505,"ELEMENT_SET_NO":999,"REV_AT_EPOCH":10684,"BSTAR":0.00025715557,"MEAN_MOTION_DOT":0.0001169,"MEAN_MOTION_DDOT":0},{"OBJECT_NAME":"FLOCK 4BE-29","OBJECT_ID":"2024-149AT","EPOCH":"2026-07-16T04:49:20.219808","CLASSIFICATION_TYPE":"U","MEAN_MOTION":15.45530128,"ECCENTRICITY":0.0003695,"INCLINATION":97.3809,"RA_OF_ASC_NODE":283.5336,"ARG_OF_PERICENTER":174.1521,"MEAN_ANOMALY":185.9772,"EPHEMERIS_TYPE":0,"NORAD_CAT_ID":60509,"ELEMENT_SET_NO":999,"REV_AT_EPOCH":10689,"BSTAR":0.00052478252,"MEAN_MOTION_DOT":0.00025154,"MEAN_MOTION_DDOT":0},{"OBJECT_NAME":"FLOCK 4BE-2","OBJECT_ID":"2024-149AV","EPOCH":"2026-07-16T05:19:53.942304","CLASSIFICATION_TYPE":"U","MEAN_MOTION":15.55985498,"ECCENTRICITY":0.0005352,"INCLINATION":97.383,"RA_OF_ASC_NODE":285.4157,"ARG_OF_PERICENTER":170.7885,"MEAN_ANOMALY":189.3469,"EPHEMERIS_TYPE":0,"NORAD_CAT_ID":60511,"ELEMENT_SET_NO":999,"REV_AT_EPOCH":10701,"BSTAR":0.00059257,"MEAN_MOTION_DOT":0.00041257,"MEAN_MOTION_DDOT":0},{"OBJECT_NAME":"FLOCK 4BE-13","OBJECT_ID":"2024-149AW","EPOCH":"2026-07-16T05:20:57.275232","CLASSIFICATION_TYPE":"U","MEAN_MOTION":15.42633135,"ECCENTRICITY":0.0005174,"INCLINATION":97.3719,"RA_OF_ASC_NODE":281.9503,"ARG_OF_PERICENTER":152.9426,"MEAN_ANOMALY":207.2092,"EPHEMERIS_TYPE":0,"NORAD_CAT_ID":60512,"ELEMENT_SET_NO":999,"REV_AT_EPOCH":10684,"BSTAR":0.00018456,"MEAN_MOTION_DOT":0.0000795,"MEAN_MOTION_DDOT":0},{"OBJECT_NAME":"FLOCK 4BE-27","OBJECT_ID":"2024-149AX","EPOCH":"2026-07-16T19:06:07.035264","CLASSIFICATION_TYPE":"U","MEAN_MOTION":15.34935178,"ECCENTRICITY":0.0004176,"INCLINATION":97.3822,"RA_OF_ASC_NODE":279.67,"ARG_OF_PERICENTER":176.4882,"MEAN_ANOMALY":183.6392,"EPHEMERIS_TYPE":0,"NORAD_CAT_ID":60513,"ELEMENT_SET_NO":999,"REV_AT_EPOCH":10668,"BSTAR":0.00016158,"MEAN_MOTION_DOT":0.00005394,"MEAN_MOTION_DDOT":0},{"OBJECT_NAME":"FLOCK 4BE-9","OBJECT_ID":"2024-149AY","EPOCH":"2026-07-16T16:42:28.180800","CLASSIFICATION_TYPE":"U","MEAN_MOTION":15.41640499,"ECCENTRICITY":0.0003835,"INCLINATION":97.3789,"RA_OF_ASC_NODE":282.2704,"ARG_OF_PERICENTER":166.7214,"MEAN_ANOMALY":193.4134,"EPHEMERIS_TYPE":0,"NORAD_CAT_ID":60514,"ELEMENT_SET_NO":999,"REV_AT_EPOCH":10686,"BSTAR":0.00028513,"MEAN_MOTION_DOT":0.00011929,"MEAN_MOTION_DDOT":0},{"OBJECT_NAME":"FLOCK 4BE-6","OBJECT_ID":"2024-149BA","EPOCH":"2026-07-16T16:24:52.764192","CLASSIFICATION_TYPE":"U","MEAN_MOTION":15.4034402,"ECCENTRICITY":0.000449,"INCLINATION":97.3786,"RA_OF_ASC_NODE":281.5593,"ARG_OF_PERICENTER":168.7072,"MEAN_ANOMALY":191.4275,"EPHEMERIS_TYPE":0,"NORAD_CAT_ID":60516,"ELEMENT_SET_NO":999,"REV_AT_EPOCH":10681,"BSTAR":0.00022879,"MEAN_MOTION_DOT":0.0000915,"MEAN_MOTION_DDOT":0},{"OBJECT_NAME":"FLOCK 4BE-14","OBJECT_ID":"2024-149BB","EPOCH":"2026-07-16T04:26:32.086176","CLASSIFICATION_TYPE":"U","MEAN_MOTION":15.41874549,"ECCENTRICITY":0.00055136,"INCLINATION":97.3693,"RA_OF_ASC_NODE":281.2204,"ARG_OF_PERICENTER":173.4498,"MEAN_ANOMALY":186.6822,"EPHEMERIS_TYPE":0,"NORAD_CAT_ID":60517,"ELEMENT_SET_NO":999,"REV_AT_EPOCH":10679,"BSTAR":0.00023061047,"MEAN_MOTION_DOT":0.00009708,"MEAN_MOTION_DDOT":0},{"OBJECT_NAME":"FLOCK 4BE-1","OBJECT_ID":"2024-149BC","EPOCH":"2026-07-16T19:38:54.085920","CLASSIFICATION_TYPE":"U","MEAN_MOTION":15.43549394,"ECCENTRICITY":0.0005161,"INCLINATION":97.3777,"RA_OF_ASC_NODE":283.2454,"ARG_OF_PERICENTER":171.1965,"MEAN_ANOMALY":188.9375,"EPHEMERIS_TYPE":0,"NORAD_CAT_ID":60518,"ELEMENT_SET_NO":999,"REV_AT_EPOCH":10694,"BSTAR":0.00025497,"MEAN_MOTION_DOT":0.00011365,"MEAN_MOTION_DDOT":0},{"OBJECT_NAME":"FLOCK 4BE-28","OBJECT_ID":"2024-149BD","EPOCH":"2026-07-16T04:53:22.562304","CLASSIFICATION_TYPE":"U","MEAN_MOTION":15.46347044,"ECCENTRICITY":0.00052323,"INCLINATION":97.3746,"RA_OF_ASC_NODE":283.4415,"ARG_OF_PERICENTER":172.7057,"MEAN_ANOMALY":187.427,"EPHEMERIS_TYPE":0,"NORAD_CAT_ID":60519,"ELEMENT_SET_NO":999,"REV_AT_EPOCH":10692,"BSTAR":0.00052986944,"MEAN_MOTION_DOT":0.00026129,"MEAN_MOTION_DDOT":0},{"OBJECT_NAME":"FLOCK 4BE-5","OBJECT_ID":"2024-149CV","EPOCH":"2026-07-16T04:32:11.525856","CLASSIFICATION_TYPE":"U","MEAN_MOTION":15.41060877,"ECCENTRICITY":0.0004143,"INCLINATION":97.384,"RA_OF_ASC_NODE":281.4834,"ARG_OF_PERICENTER":168.1835,"MEAN_ANOMALY":191.951,"EPHEMERIS_TYPE":0,"NORAD_CAT_ID":60559,"ELEMENT_SET_NO":999,"REV_AT_EPOCH":10674,"BSTAR":0.00022277,"MEAN_MOTION_DOT":0.00009121,"MEAN_MOTION_DDOT":0}]}
